{
  "type": "FeatureCollection",
  "features": [
    {
      "type": "Feature",
      "properties": {
        "norad_id": 30836,
        "name": "FENGYUN 1C DEB",
        "group": "fengyun-1c-debris",
        "lat": 17.937398739306797,
        "lon": -165.62120070611437,
        "alt_km": 858.3727185320031,
        "timestamp": "2025-12-04T15:47:54.377256+00:00",
        "meta_object_name": "FENGYUN 1C DEB",
        "meta_object_id": "1999-025AVW",
        "meta_epoch": "2025-12-03T08:25:06.102048",
        "meta_mean_motion": 14.11914464,
        "meta_eccentricity": 0.002548,
        "meta_inclination": 98.7461,
        "meta_ra_of_asc_node": 10.2475,
        "meta_arg_of_pericenter": 272.1161,
        "meta_mean_anomaly": 87.7093,
        "meta_ephemeris_type": 0,
        "meta_classification_type": "U",
        "meta_norad_cat_id": 30836,
        "meta_element_set_no": 999,
        "meta_rev_at_epoch": 61871,
        "meta_bstar": 0.00048653,
        "meta_mean_motion_dot": 8.49e-06,
        "meta_mean_motion_ddot": 0,
        "tle_line1": "1 30836U 99025AVW 25337.35076507  .00000849  00000+0  48653-3 0  9997",
        "tle_line2": "2 30836  98.7461  10.2475 0025480 272.1161  87.7093 14.11914464618717"
      },
      "geometry": {
        "type": "Point",
        "coordinates": [
          -165.62120070611437,
          17.937398739306797
        ]
      }
    },
    {
      "type": "Feature",
      "properties": {
        "norad_id": 30837,
        "name": "FENGYUN 1C DEB",
        "group": "fengyun-1c-debris",
        "lat": 49.24994918230986,
        "lon": 155.33209142655875,
        "alt_km": 818.381937725635,
        "timestamp": "2025-12-04T15:47:54.377267+00:00",
        "meta_object_name": "FENGYUN 1C DEB",
        "meta_object_id": "1999-025AVX",
        "meta_epoch": "2025-12-03T22:28:15.762720",
        "meta_mean_motion": 14.14505153,
        "meta_eccentricity": 0.0032551,
        "meta_inclination": 98.6779,
        "meta_ra_of_asc_node": 324.4213,
        "meta_arg_of_pericenter": 158.2174,
        "meta_mean_anomaly": 257.4584,
        "meta_ephemeris_type": 0,
        "meta_classification_type": "U",
        "meta_norad_cat_id": 30837,
        "meta_element_set_no": 999,
        "meta_rev_at_epoch": 96694,
        "meta_bstar": 0.00053231,
        "meta_mean_motion_dot": 9.83e-06,
        "meta_mean_motion_ddot": 0,
        "tle_line1": "1 30837U 99025AVX 25337.93629355  .00000983  00000+0  53231-3 0  9994",
        "tle_line2": "2 30837  98.6779 324.4213 0032551 158.2174 257.4584 14.14505153966940"
      },
      "geometry": {
        "type": "Point",
        "coordinates": [
          155.33209142655875,
          49.24994918230986
        ]
      }
    },
    {
      "type": "Feature",
      "properties": {
        "norad_id": 30838,
        "name": "FENGYUN 1C DEB",
        "group": "fengyun-1c-debris",
        "lat": -71.74655066687635,
        "lon": 43.10346708257061,
        "alt_km": 732.6893130449726,
        "timestamp": "2025-12-04T15:47:54.377278+00:00",
        "meta_object_name": "FENGYUN 1C DEB",
        "meta_object_id": "1999-025AVY",
        "meta_epoch": "2025-12-03T10:25:34.508352",
        "meta_mean_motion": 14.47446344,
        "meta_eccentricity": 0.00336158,
        "meta_inclination": 99.0424,
        "meta_ra_of_asc_node": 250.6671,
        "meta_arg_of_pericenter": 188.2519,
        "meta_mean_anomaly": 171.8122,
        "meta_ephemeris_type": 0,
        "meta_classification_type": "U",
        "meta_norad_cat_id": 30838,
        "meta_element_set_no": 999,
        "meta_rev_at_epoch": 97179,
        "meta_bstar": 0.0035152134,
        "meta_mean_motion_dot": 0.00012969,
        "meta_mean_motion_ddot": 0,
        "tle_line1": "1 30838U 99025AVY 25337.43442718  .00012969  00000+0  35152-2 0  9994",
        "tle_line2": "2 30838  99.0424 250.6671 0033615 188.2519 171.8122 14.47446344971797"
      },
      "geometry": {
        "type": "Point",
        "coordinates": [
          43.10346708257061,
          -71.74655066687635
        ]
      }
    },
    {
      "type": "Feature",
      "properties": {
        "norad_id": 30840,
        "name": "FENGYUN 1C DEB",
        "group": "fengyun-1c-debris",
        "lat": -12.241094145946276,
        "lon": -7.999822310840335,
        "alt_km": 589.4819944348101,
        "timestamp": "2025-12-04T15:47:54.377288+00:00",
        "meta_object_name": "FENGYUN 1C DEB",
        "meta_object_id": "1999-025AWA",
        "meta_epoch": "2025-12-03T11:54:36.630720",
        "meta_mean_motion": 14.60955759,
        "meta_eccentricity": 0.02188017,
        "meta_inclination": 98.023,
        "meta_ra_of_asc_node": 349.1194,
        "meta_arg_of_pericenter": 39.5754,
        "meta_mean_anomaly": 322.1192,
        "meta_ephemeris_type": 0,
        "meta_classification_type": "U",
        "meta_norad_cat_id": 30840,
        "meta_element_set_no": 999,
        "meta_rev_at_epoch": 72996,
        "meta_bstar": 0.00095118466,
        "meta_mean_motion_dot": 6.501e-05,
        "meta_mean_motion_ddot": 0,
        "tle_line1": "1 30840U 99025AWA 25337.49625730  .00006501  00000+0  95118-3 0  9994",
        "tle_line2": "2 30840  98.0230 349.1194 0218801  39.5754 322.1192 14.60955759729967"
      },
      "geometry": {
        "type": "Point",
        "coordinates": [
          -7.999822310840335,
          -12.241094145946276
        ]
      }
    },
    {
      "type": "Feature",
      "properties": {
        "norad_id": 30843,
        "name": "FENGYUN 1C DEB",
        "group": "fengyun-1c-debris",
        "lat": 62.3635063875099,
        "lon": 32.55281061590313,
        "alt_km": 691.977927155961,
        "timestamp": "2025-12-04T15:47:54.377298+00:00",
        "meta_object_name": "FENGYUN 1C DEB",
        "meta_object_id": "1999-025AWD",
        "meta_epoch": "2025-12-02T22:10:08.396256",
        "meta_mean_motion": 14.52444125,
        "meta_eccentricity": 0.01487231,
        "meta_inclination": 98.8437,
        "meta_ra_of_asc_node": 48.0238,
        "meta_arg_of_pericenter": 149.1538,
        "meta_mean_anomaly": 211.85,
        "meta_ephemeris_type": 0,
        "meta_classification_type": "U",
        "meta_norad_cat_id": 30843,
        "meta_element_set_no": 999,
        "meta_rev_at_epoch": 99182,
        "meta_bstar": 0.00029628051,
        "meta_mean_motion_dot": 1.339e-05,
        "meta_mean_motion_ddot": 0,
        "tle_line1": "1 30843U 99025AWD 25336.92370829  .00001339  00000+0  29628-3 0  9997",
        "tle_line2": "2 30843  98.8437  48.0238 0148723 149.1538 211.8500 14.52444125991828"
      },
      "geometry": {
        "type": "Point",
        "coordinates": [
          32.55281061590313,
          62.3635063875099
        ]
      }
    },
    {
      "type": "Feature",
      "properties": {
        "norad_id": 30845,
        "name": "FENGYUN 1C DEB",
        "group": "fengyun-1c-debris",
        "lat": 31.359974966500413,
        "lon": -24.962017670455214,
        "alt_km": 993.4335038528943,
        "timestamp": "2025-12-04T15:47:54.377310+00:00",
        "meta_object_name": "FENGYUN 1C DEB",
        "meta_object_id": "1999-025AWF",
        "meta_epoch": "2025-12-02T12:04:36.073920",
        "meta_mean_motion": 13.76844808,
        "meta_eccentricity": 0.01921512,
        "meta_inclination": 98.3793,
        "meta_ra_of_asc_node": 338.291,
        "meta_arg_of_pericenter": 298.3652,
        "meta_mean_anomaly": 215.1904,
        "meta_ephemeris_type": 0,
        "meta_classification_type": "U",
        "meta_norad_cat_id": 30845,
        "meta_element_set_no": 999,
        "meta_rev_at_epoch": 94102,
        "meta_bstar": 0.00050675544,
        "meta_mean_motion_dot": 5.33e-06,
        "meta_mean_motion_ddot": 0,
        "tle_line1": "1 30845U 99025AWF 25336.50319530  .00000533  00000+0  50676-3 0  9997",
        "tle_line2": "2 30845  98.3793 338.2910 0192151 298.3652 215.1904 13.76844808941028"
      },
      "geometry": {
        "type": "Point",
        "coordinates": [
          -24.962017670455214,
          31.359974966500413
        ]
      }
    },
    {
      "type": "Feature",
      "properties": {
        "norad_id": 30846,
        "name": "FENGYUN 1C DEB",
        "group": "fengyun-1c-debris",
        "lat": 12.023479453077039,
        "lon": -26.86092989424871,
        "alt_km": 792.6492188883549,
        "timestamp": "2025-12-04T15:47:54.377320+00:00",
        "meta_object_name": "FENGYUN 1C DEB",
        "meta_object_id": "1999-025AWG",
        "meta_epoch": "2025-12-03T10:50:02.904000",
        "meta_mean_motion": 14.41463516,
        "meta_eccentricity": 0.00542634,
        "meta_inclination": 99.3207,
        "meta_ra_of_asc_node": 149.819,
        "meta_arg_of_pericenter": 3.7076,
        "meta_mean_anomaly": 24.7244,
        "meta_ephemeris_type": 0,
        "meta_classification_type": "U",
        "meta_norad_cat_id": 30846,
        "meta_element_set_no": 999,
        "meta_rev_at_epoch": 97796,
        "meta_bstar": 0.0011326551,
        "meta_mean_motion_dot": 3.69e-05,
        "meta_mean_motion_ddot": 0,
        "tle_line1": "1 30846U 99025AWG 25337.45142250  .00003690  00000+0  11327-2 0  9992",
        "tle_line2": "2 30846  99.3207 149.8190 0054263   3.7076  24.7244 14.41463516977964"
      },
      "geometry": {
        "type": "Point",
        "coordinates": [
          -26.86092989424871,
          12.023479453077039
        ]
      }
    }
  ]
}